[{"OBJECT_NAME":"STARLINK-31598","OBJECT_ID":"2024-050K","EPOCH":"2025-11-11T05:06:23.171616","MEAN_MOTION":15.30203686,"ECCENTRICITY":0.00020222,"INCLINATION":53.1626,"RA_OF_ASC_NODE":11.686,"ARG_OF_PERICENTER":97.913,"MEAN_ANOMALY":262.2101,"EPHEMERIS_TYPE":0,"CLASSIFICATION_TYPE":"U","NORAD_CAT_ID":59263,"ELEMENT_SET_NO":999,"REV_AT_EPOCH":9240,"BSTAR":-7.194066e-5,"MEAN_MOTION_DOT":-2.49e-5,"MEAN_MOTION_DDOT":0},{"OBJECT_NAME":"STARLINK-31645","OBJECT_ID":"2024-050L","EPOCH":"2025-11-11T04:29:54.739104","MEAN_MOTION":15.30226902,"ECCENTRICITY":0.00012094,"INCLINATION":53.1591,"RA_OF_ASC_NODE":11.5471,"ARG_OF_PERICENTER":53.1004,"MEAN_ANOMALY":307.0107,"EPHEMERIS_TYPE":0,"CLASSIFICATION_TYPE":"U","NORAD_CAT_ID":59264,"ELEMENT_SET_NO":999,"REV_AT_EPOCH":9240,"BSTAR":0.0012877542,"MEAN_MOTION_DOT":0.00038007,"MEAN_MOTION_DDOT":0},{"OBJECT_NAME":"STARLINK-31646","OBJECT_ID":"2024-050M","EPOCH":"2025-11-11T04:39:01.477440","MEAN_MOTION":15.30208398,"ECCENTRICITY":0.00011078,"INCLINATION":53.1619,"RA_OF_ASC_NODE":11.587,"ARG_OF_PERICENTER":113.3353,"MEAN_ANOMALY":246.7764,"EPHEMERIS_TYPE":0,"CLASSIFICATION_TYPE":"U","NORAD_CAT_ID":59265,"ELEMENT_SET_NO":999,"REV_AT_EPOCH":9240,"BSTAR":9.7125285e-5,"MEAN_MOTION_DOT":2.519e-5,"MEAN_MOTION_DDOT":0},{"OBJECT_NAME":"STARLINK-31648","OBJECT_ID":"2024-050N","EPOCH":"2025-11-11T07:13:42.470400","MEAN_MOTION":15.30206991,"ECCENTRICITY":0.00012243,"INCLINATION":53.1605,"RA_OF_ASC_NODE":10.8402,"ARG_OF_PERICENTER":108.2959,"MEAN_ANOMALY":251.8175,"EPHEMERIS_TYPE":0,"CLASSIFICATION_TYPE":"U","NORAD_CAT_ID":59266,"ELEMENT_SET_NO":999,"REV_AT_EPOCH":9242,"BSTAR":0.00029645304,"MEAN_MOTION_DOT":8.433e-5,"MEAN_MOTION_DDOT":0},{"OBJECT_NAME":"STARLINK-31579","OBJECT_ID":"2024-050P","EPOCH":"2025-11-11T04:25:20.928000","MEAN_MOTION":15.30187386,"ECCENTRICITY":0.00015993,"INCLINATION":53.1614,"RA_OF_ASC_NODE":11.5224,"ARG_OF_PERICENTER":51.5475,"MEAN_ANOMALY":308.5669,"EPHEMERIS_TYPE":0,"CLASSIFICATION_TYPE":"U","NORAD_CAT_ID":59267,"ELEMENT_SET_NO":999,"REV_AT_EPOCH":9240,"BSTAR":0.00023214715,"MEAN_MOTION_DOT":6.52e-5,"MEAN_MOTION_DDOT":0},{"OBJECT_NAME":"STARLINK-31627","OBJECT_ID":"2024-050Q","EPOCH":"2025-11-11T03:23:12.835392","MEAN_MOTION":15.30232032,"ECCENTRICITY":7.065e-5,"INCLINATION":53.1602,"RA_OF_ASC_NODE":11.9642,"ARG_OF_PERICENTER":118.1214,"MEAN_ANOMALY":241.9858,"EPHEMERIS_TYPE":0,"CLASSIFICATION_TYPE":"U","NORAD_CAT_ID":59268,"ELEMENT_SET_NO":999,"REV_AT_EPOCH":9239,"BSTAR":0.0011769624,"MEAN_MOTION_DOT":0.00034696,"MEAN_MOTION_DDOT":0},{"OBJECT_NAME":"STARLINK-31609","OBJECT_ID":"2024-050R","EPOCH":"2025-11-11T04:34:27.623136","MEAN_MOTION":15.30209695,"ECCENTRICITY":0.00011388,"INCLINATION":53.1616,"RA_OF_ASC_NODE":11.5647,"ARG_OF_PERICENTER":103.516,"MEAN_ANOMALY":256.5968,"EPHEMERIS_TYPE":0,"CLASSIFICATION_TYPE":"U","NORAD_CAT_ID":59269,"ELEMENT_SET_NO":999,"REV_AT_EPOCH":9240,"BSTAR":8.800385e-6,"MEAN_MOTION_DOT":-9.8e-7,"MEAN_MOTION_DDOT":0},{"OBJECT_NAME":"STARLINK-31616","OBJECT_ID":"2024-050S","EPOCH":"2025-11-11T04:43:34.720032","MEAN_MOTION":15.30213801,"ECCENTRICITY":0.00015754,"INCLINATION":53.163,"RA_OF_ASC_NODE":11.6037,"ARG_OF_PERICENTER":103.9824,"MEAN_ANOMALY":256.1352,"EPHEMERIS_TYPE":0,"CLASSIFICATION_TYPE":"U","NORAD_CAT_ID":59270,"ELEMENT_SET_NO":999,"REV_AT_EPOCH":9240,"BSTAR":6.8615886e-5,"MEAN_MOTION_DOT":1.674e-5,"MEAN_MOTION_DDOT":0},{"OBJECT_NAME":"STARLINK-31630","OBJECT_ID":"2024-050T","EPOCH":"2025-11-11T06:29:00.159936","MEAN_MOTION":15.30238624,"ECCENTRICITY":0.00016724,"INCLINATION":53.1614,"RA_OF_ASC_NODE":358.551,"ARG_OF_PERICENTER":59.845,"MEAN_ANOMALY":300.2717,"EPHEMERIS_TYPE":0,"CLASSIFICATION_TYPE":"U","NORAD_CAT_ID":59271,"ELEMENT_SET_NO":999,"REV_AT_EPOCH":9259,"BSTAR":-2.9496281e-5,"MEAN_MOTION_DOT":-1.234e-5,"MEAN_MOTION_DDOT":0},{"OBJECT_NAME":"STARLINK-31623","OBJECT_ID":"2024-050U","EPOCH":"2025-11-11T03:29:08.096640","MEAN_MOTION":15.30203644,"ECCENTRICITY":0.00013147,"INCLINATION":53.1616,"RA_OF_ASC_NODE":11.2901,"ARG_OF_PERICENTER":61.9208,"MEAN_ANOMALY":298.1926,"EPHEMERIS_TYPE":0,"CLASSIFICATION_TYPE":"U","NORAD_CAT_ID":59272,"ELEMENT_SET_NO":999,"REV_AT_EPOCH":9240,"BSTAR":8.528545e-5,"MEAN_MOTION_DOT":2.168e-5,"MEAN_MOTION_DDOT":0},{"OBJECT_NAME":"STARLINK-31595","OBJECT_ID":"2024-050V","EPOCH":"2025-11-11T07:18:16.331616","MEAN_MOTION":15.30169836,"ECCENTRICITY":8.859e-5,"INCLINATION":53.1598,"RA_OF_ASC_NODE":10.8645,"ARG_OF_PERICENTER":51.0772,"MEAN_ANOMALY":309.0308,"EPHEMERIS_TYPE":0,"CLASSIFICATION_TYPE":"U","NORAD_CAT_ID":59273,"ELEMENT_SET_NO":999,"REV_AT_EPOCH":9242,"BSTAR":-0.00023841871,"MEAN_MOTION_DOT":-7.406e-5,"MEAN_MOTION_DDOT":0},{"OBJECT_NAME":"STARLINK-31463","OBJECT_ID":"2024-056A","EPOCH":"2025-11-11T00:53:08.079648","MEAN_MOTION":15.27586338,"ECCENTRICITY":0.00012826,"INCLINATION":42.9998,"RA_OF_ASC_NODE":176.8447,"ARG_OF_PERICENTER":268.5236,"MEAN_ANOMALY":91.5469,"EPHEMERIS_TYPE":0,"CLASSIFICATION_TYPE":"U","NORAD_CAT_ID":59296,"ELEMENT_SET_NO":999,"REV_AT_EPOCH":9305,"BSTAR":0.00024785992,"MEAN_MOTION_DOT":6.566e-5,"MEAN_MOTION_DDOT":0},{"OBJECT_NAME":"STARLINK-31487","OBJECT_ID":"2024-056B","EPOCH":"2025-11-11T00:35:59.379648","MEAN_MOTION":15.2758981,"ECCENTRICITY":0.00024145,"INCLINATION":43.001,"RA_OF_ASC_NODE":181.0822,"ARG_OF_PERICENTER":267.3092,"MEAN_ANOMALY":92.7483,"EPHEMERIS_TYPE":0,"CLASSIFICATION_TYPE":"U","NORAD_CAT_ID":59297,"ELEMENT_SET_NO":999,"REV_AT_EPOCH":9312,"BSTAR":0.00016203984,"MEAN_MOTION_DOT":4.201e-5,"MEAN_MOTION_DDOT":0},{"OBJECT_NAME":"STARLINK-31386","OBJECT_ID":"2024-056C","EPOCH":"2025-11-11T00:10:04.920960","MEAN_MOTION":15.27588113,"ECCENTRICITY":4.733e-5,"INCLINATION":43.001,"RA_OF_ASC_NODE":180.9438,"ARG_OF_PERICENTER":243.284,"MEAN_ANOMALY":116.7964,"EPHEMERIS_TYPE":0,"CLASSIFICATION_TYPE":"U","NORAD_CAT_ID":59298,"ELEMENT_SET_NO":999,"REV_AT_EPOCH":9300,"BSTAR":9.9887776e-5,"MEAN_MOTION_DOT":2.489e-5,"MEAN_MOTION_DDOT":0},{"OBJECT_NAME":"STARLINK-31409","OBJECT_ID":"2024-056D","EPOCH":"2025-11-11T00:15:10.740672","MEAN_MOTION":15.2759014,"ECCENTRICITY":0.00010893,"INCLINATION":43.0041,"RA_OF_ASC_NODE":174.0524,"ARG_OF_PERICENTER":272.4099,"MEAN_ANOMALY":87.6628,"EPHEMERIS_TYPE":0,"CLASSIFICATION_TYPE":"U","NORAD_CAT_ID":59299,"ELEMENT_SET_NO":999,"REV_AT_EPOCH":9320,"BSTAR":5.5951391e-5,"MEAN_MOTION_DOT":1.278e-5,"MEAN_MOTION_DDOT":0},{"OBJECT_NAME":"STARLINK-31489","OBJECT_ID":"2024-056E","EPOCH":"2025-11-10T23:47:52.323648","MEAN_MOTION":15.27593376,"ECCENTRICITY":0.00015769,"INCLINATION":43.0043,"RA_OF_ASC_NODE":180.8237,"ARG_OF_PERICENTER":270.3494,"MEAN_ANOMALY":89.7177,"EPHEMERIS_TYPE":0,"CLASSIFICATION_TYPE":"U","NORAD_CAT_ID":59300,"ELEMENT_SET_NO":999,"REV_AT_EPOCH":9300,"BSTAR":1.3990532e-5,"MEAN_MOTION_DOT":1.23e-6,"MEAN_MOTION_DDOT":0}]
