STARLINK-31598          
1 59263U 24050K   25315.21276819 -.00002490  00000+0 -71941-4 0  9990
2 59263  53.1626  11.6860 0002022  97.9130 262.2101 15.30203686 92400
STARLINK-31645          
1 59264U 24050L   25315.18743911  .00038007  00000+0  12878-2 0  9992
2 59264  53.1591  11.5471 0001209  53.1004 307.0107 15.30226902 92409
STARLINK-31646          
1 59265U 24050M   25315.19376710  .00002519  00000+0  97125-4 0  9992
2 59265  53.1619  11.5870 0001107 113.3353 246.7764 15.30208398 92404
STARLINK-31648          
1 59266U 24050N   25315.30118600  .00008433  00000+0  29645-3 0  9990
2 59266  53.1605  10.8402 0001224 108.2959 251.8175 15.30206991 92420
STARLINK-31579          
1 59267U 24050P   25315.18427000  .00006520  00000+0  23215-3 0  9996
2 59267  53.1614  11.5224 0001599  51.5475 308.5669 15.30187386 92401
STARLINK-31627          
1 59268U 24050Q   25315.14112078  .00034696  00000+0  11770-2 0  9996
2 59268  53.1602  11.9642 0000706 118.1214 241.9858 15.30232032 92394
STARLINK-31609          
1 59269U 24050R   25315.19059749 -.00000098  00000+0  88004-5 0  9994
2 59269  53.1616  11.5647 0001138 103.5160 256.5968 15.30209695 92404
STARLINK-31616          
1 59270U 24050S   25315.19692963  .00001674  00000+0  68616-4 0  9993
2 59270  53.1630  11.6037 0001575 103.9824 256.1352 15.30213801 92409
STARLINK-31630          
1 59271U 24050T   25315.27014074 -.00001234  00000+0 -29496-4 0  9991
2 59271  53.1614 358.5510 0001672  59.8450 300.2717 15.30238624 92599
STARLINK-31623          
1 59272U 24050U   25315.14523260  .00002168  00000+0  85285-4 0  9993
2 59272  53.1616  11.2901 0001314  61.9208 298.1926 15.30203644 92408
STARLINK-31595          
1 59273U 24050V   25315.30435569 -.00007406  00000+0 -23842-3 0  9998
2 59273  53.1598  10.8645 0000885  51.0772 309.0308 15.30169836 92428
STARLINK-31463          
1 59296U 24056A   25315.03689907  .00006566  00000+0  24786-3 0  9998
2 59296  42.9998 176.8447 0001282 268.5236  91.5469 15.27586338 93055
STARLINK-31487          
1 59297U 24056B   25315.02499282  .00004201  00000+0  16204-3 0  9993
2 59297  43.0010 181.0822 0002414 267.3092  92.7483 15.27589810 93128
STARLINK-31386          
1 59298U 24056C   25315.00700140  .00002489  00000+0  99888-4 0  9996
2 59298  43.0010 180.9438 0000473 243.2840 116.7964 15.27588113 93000
STARLINK-31409          
1 59299U 24056D   25315.01054098  .00001278  00000+0  55951-4 0  9990
2 59299  43.0041 174.0524 0001089 272.4099  87.6628 15.27590140 93207
STARLINK-31489          
1 59300U 24056E   25314.99157782  .00000123  00000+0  13991-4 0  9999
2 59300  43.0043 180.8237 0001576 270.3494  89.7177 15.27593376 93009
